SL-14 R/B               
1 20511U 90018B   26192.17918825  .00000227  00000+0  25447-4 0  9994
2 20511  82.5221 107.6841 0017303  49.2913 310.9801 14.82232474940877
HST                     
1 20580U 90037B   26192.32864100  .00004115  00000+0  12587-3 0  9994
2 20580  28.4732 275.5444 0002064  68.2345 291.8470 15.31034980792276
SL-16 R/B               
1 20625U 90046B   26191.98319351  .00000054  00000+0  52679-4 0  9993
2 20625  70.9983  38.9709 0012480 121.8130 238.4209 14.15022989865839
COSMOS 2084             
1 20663U 90055A   26192.49364138  .00001013  00000+0  82564-4 0  9997
2 20663  62.7890 273.1236 0007606 314.5677  45.4802 15.06215430954960
SL-6 R/B(2)             
1 20666U 90055D   26191.98414770  .00001019  00000+0  86525-4 0  9998
2 20666  62.7799 194.3925 0044462   8.4250 351.7585 15.04076991956730
SL-8 R/B                
1 20775U 90078B   26189.91119699  .00016326  00000+0  46255-3 0  9998
2 20775  82.9023 141.9992 0344547 324.9410  32.9553 14.93408823827367
SL-8 R/B                
1 21088U 91006B   26191.10840330  .00000054  00000+0  38417-4 0  9998
2 21088  82.9416  78.9815 0023666  54.0951 103.6954 13.77508472780924
OKEAN-3                 
1 21397U 91039A   26192.53322743  .00001493  00000+0  10197-3 0  9990
2 21397  82.5138 216.7702 0012161 268.5123  91.4711 15.05422298883666
COSMOS 2151             
1 21422U 91042A   26192.46730801  .00000846  00000+0  64900-4 0  9996
2 21422  82.4978 324.2482 0012330   8.1782 351.9641 15.00507388881756
SL-14 R/B               
1 21423U 91042B   26192.19082302  .00000185  00000+0  20414-4 0  9991
2 21423  82.4935 104.3868 0016620 190.0863 170.0021 14.81916705871365
ERS-1                   
1 21574U 91050A   26192.49238031  .00000144  00000+0  60575-4 0  9999
2 21574  98.7795 213.7838 0031650 192.7910 167.2477 14.39531319833548
ARIANE 40 R/B           
1 21610U 91050F   26192.11081012  .00000127  00000+0  50267-4 0  9992
2 21610  98.1864 239.5943 0004309  70.3015 289.8641 14.42970486836791
INTERCOSMOS 25          
1 21819U 91086A   26192.46119644  .00000760  00000+0  14845-3 0  9997
2 21819  82.6014 235.1208 1484393 209.9846 140.7557 12.12237435511685
SL-8 R/B                
1 21876U 92008B   26192.49718815  .00000113  00000+0  10001-3 0  9995
2 21876  82.9270 175.7126 0035472 146.6939 330.4955 13.75982946726448
SL-8 R/B                
1 21938U 92020B   26192.07867575  .00000027  00000+0  12464-4 0  9990
2 21938  82.9288  62.1094 0028129 315.5421 207.8981 13.75550288718091
USA 81                  
1 21949U 92023A   26192.09577898  .00000099  00000+0  29140-4 0  9991
2 21949  85.0054  60.2059 0002157  66.3770 293.7649 14.32404187112452
COSMOS 2219             
1 22219U 92076A   26190.26063133 -.00000086  00000+0 -20472-4 0  9996
2 22219  71.0616 123.9288 0017874   6.9103 353.2263 14.14110057735562
SL-16 R/B               
1 22220U 92076B   26192.53306816  .00000228  00000+0  13766-3 0  9991
2 22220  71.0007 287.4958 0015003 266.7337 181.5342 14.16875778739378
COSMOS 2221             
1 22236U 92080A   26191.47371794  .00001025  00000+0  87475-4 0  9997
2 22236  82.5042 161.4535 0015431 134.6920 225.5562 14.96595498799150
SL-16 R/B               
1 22285U 92093B   26191.21000503 -.00000097  00000+0 -25133-4 0  9997
2 22285  71.0224 107.0605 0002545 146.2385 213.8900 14.15467002730497
COSMOS 2228             
1 22286U 92094A   26192.47478262  .00001068  00000+0  88773-4 0  9995
2 22286  82.5190 118.7793 0016106 242.7656 117.1926 14.97668630794589
SL-16 R/B               
1 22566U 93016B   26192.53536301 -.00000006  00000+0  21426-4 0  9991
2 22566  71.0084 315.0672 0008980 144.6183 215.5537 14.15311506719696
COSMOS 2242             
1 22626U 93024A   26192.44538271  .00001004  00000+0  84931-4 0  9993
2 22626  82.5196 148.3340 0014445 246.5545 113.4159 14.96977773798900
SL-16 R/B               
1 22803U 93059B   26192.20487875 -.00000243  00000+0 -96187-4 0  9997
2 22803  70.9906 110.6555 0016437  14.5803 345.5791 14.17250591697037
ARIANE 40 R/B           
1 22830U 93061H   26192.15638447  .00000077  00000+0  43912-4 0  9998
2 22830  98.4808 258.5143 0009444 279.2511  80.7605 14.32917542711788
COSMOS 2278             
1 23087U 94023A   26192.50481808 -.00000147  00000+0 -52123-4 0  9992
2 23087  71.0529 276.0477 0009830 211.2284 148.8256 14.14393522662315
SL-16 R/B               
1 23088U 94023B   26192.42503286 -.00000061  00000+0 -69680-5 0  9991
2 23088  70.9980 171.0292 0001480 142.1590 217.9637 14.15023863663590
SL-16 R/B               
1 23343U 94074B   26192.51453676  .00000219  00000+0  35790-4 0  9995
2 23343  97.6986 218.2209 0006892 165.4781   2.0245 14.79522386705555
SL-16 R/B               
1 23405U 94077B   26192.14637216 -.00000271  00000+0 -11377-3 0  9994
2 23405  70.9827  92.7578 0004071 306.6686  53.4062 14.15575205633708
ARIANE 40+ R/B          
1 23561U 95021B   26192.16211615  .00000110  00000+0  49012-4 0  9998
2 23561  98.4402 261.8896 0007783 126.8815 262.7399 14.39846184637015
SL-16 R/B               
1 23705U 95058B   26192.51263654 -.00000054  00000+0 -32518-5 0  9990
2 23705  71.0213 280.2869 0014613 287.5872  72.3654 14.15508019585371
